STARLINK-2022           
1 47643U 21012Z   23346.56236158  .00001551  00000+0  12296-3 0  9998
2 47643  53.0552 124.3358 0000931  89.2308 270.8788 15.06397308156953
